2023-049A               
1 56159U 23049A   23122.43155219  .00038320  00000+0  13671-2 0  9999
2 56159  97.4113 267.4441 0013164 182.0492 263.2821 15.28698598  4562
2023-050A               
1 56162U 23050A   23121.91383056  .00000116  00000+0  93385-4 0  9993
2 56162  81.0009  86.9313 0006700 148.1271 212.0292 13.84582293  4059
CHECKMATE 8             
1 56163U 23050B   23122.41843866  .00000011  00000+0  00000+0 0  9991
2 56163  80.9984  86.4437 0006877 143.9200 216.2426 13.84638276  4139
CHECKMATE 5             
1 56164U 23050C   23121.91165800  .00000105  00000+0  83274-4 0  9994
2 56164  80.9995  86.9240 0006972 144.5324 215.6296 13.84685116  4053
CHECKMATE 4             
1 56165U 23050D   23121.91116904  .00000112  00000+0  89442-4 0  9997
2 56165  81.0033  86.9350 0007068 143.6278 216.5360 13.84708479  3998
CHECKMATE 6             
1 56166U 23050E   23121.90978083  .00000011  00000+0  00000+0 0  9997
2 56166  80.9981  86.9241 0007155 140.9048 219.2521 13.84772595  3999
CHECKMATE 7             
1 56167U 23050F   23122.41512351  .00000011  00000+0  00000+0 0  9997
2 56167  81.0020  86.4490 0007700 136.4851 223.6916 13.84792300  4067
CHECKMATE 2             
1 56168U 23050G   23122.05291135  .00000011  00000+0  00000+0 0  9992
2 56168  81.0024  86.7949 0007364 138.7025 221.4717 13.84837797  4018
CHECKMATE 1             
1 56169U 23050H   23122.41317285  .00000011  00000+0  00000+0 0  9998
2 56169  81.0007  86.4450 0006567 142.2973 217.8644 13.84883826  4067
CHECKMATE 3             
1 56170U 23050J   23121.92657809  .00000179  00000+0  15568-3 0  9998
2 56170  81.0012  86.9490 0009649 133.4733 226.7230 13.82335423  3998
BB 1                    
1 56171U 23050K   23116.42034529  .00000143  00000+0  11939-3 0  9995
2 56171  81.0009  92.1970 0010646 143.9462 216.2409 13.83530221  3234
2023-051A               
1 56172U 23051A   23122.48480610  .00046657  27378-5  36964-3 0  9994
2 56172  97.3318 196.2675 0145419 257.2162 232.2483 15.58693791  3943
INTELSAT 40E            
1 56174U 23052A   23122.46622288 -.00000186  00000+0  00000+0 0  9997
2 56174   0.0163 237.4341 0004887  69.6027 349.7039  1.00456248   382
FALCON 9 R/B            
1 56175U 23052B   23122.07435318  .00031832 -58275-6  12593-2 0  9990
2 56175  27.1047  84.8250 6975484 196.3025 118.2834  2.71611264   684
IMECE                   
1 56178U 23054A   23122.31754765  .00000638  00000+0  12512-3 0  9999
2 56178  98.2116  18.0174 0008800 152.4483 207.7171 14.66064048  3119
2023-054B               
1 56179U 23054B   23122.51815108  .00007909  00000+0  35753-3 0  9991
2 56179  97.4072  18.0781 0008660 187.3058 297.0124 15.21171534  3239
DEWASAT-2               
1 56180U 23054C   23121.96612852  .00011649  00000+0  51913-3 0  9994
2 56180  97.4140  17.5573 0010067 188.0882 172.0193 15.21540507  3134
KILICSAT                
1 56181U 23054D   23122.44600406  .00012110  00000+0  53938-3 0  9994
2 56181  97.4097  18.0232 0009427 183.6803 284.3374 15.21552805  3217
LEMUR-2-ONREFLECTION    
1 56182U 23054E   23121.96483061  .00014718  00000+0  65174-3 0  9998
2 56182  97.4032  17.5334 0008660 178.9838 181.1418 15.21711178  3142
2023-054F               
1 56183U 23054F   23122.29469231  .00008137  00000+0  36434-3 0  9994
2 56183  97.4057  17.8605 0008482 172.7471 187.3889 15.21492182  3197
SSS-2B                  
1 56184U 23054G   23121.83331799  .00010732  00000+0  47694-3 0  9995
2 56184  97.4166  17.4348 0010790 187.3830 172.7249 15.21649198  3127
BRO-9                   
1 56185U 23054H   23122.51318600  .00014811  00000+0  65529-3 0  9997
2 56185  97.4060  18.0815 0009086 177.5324 306.7897 15.21736483  3225
GHGSAT-C8               
1 56186U 23054J   23122.44561206  .00009064  00000+0  40492-3 0  9998
2 56186  97.4107  18.0259 0010002 182.2386 285.8273 15.21524855  3213
LEMUR-2-SPACEGUS        
1 56187U 23054K   23122.29190312  .00016676  00000+0  73424-3 0  9996
2 56187  97.4038  17.8589 0008893 169.1070 191.0361 15.21877715  3198
CIRBE                   
1 56188U 23054L   23121.96212923  .00013286  00000+0  58455-3 0  9994
2 56188  97.4117  17.5582 0010004 178.5210 181.6058 15.21944835  3145
2023-054M               
1 56189U 23054M   23121.96241739  .00008037  00000+0  35650-3 0  9992
2 56189  97.4131  17.5616 0010434 178.5265 181.6004 15.21802463  3148
2023-054N               
1 56190U 23054N   23122.29036871  .00010332  00000+0  45589-3 0  9993
2 56190  97.4063  17.8676 0009997 168.2410 191.9062 15.21911573  3199
HAWK-7A                 
1 56191U 23054P   23121.95959441  .00004079  00000+0  18074-3 0  9993
2 56191  97.4102  17.5650 0011079 173.2435 186.8953 15.22131612  3146
ION SCV-010             
1 56192U 23054Q   23121.96107329  .00005296  00000+0  23567-3 0  9990
2 56192  97.4094  17.5550 0010668 171.6690 188.4726 15.21856460  3144
HAWK-7B                 
1 56193U 23054R   23121.89269479  .00005572  00000+0  24427-3 0  9991
2 56193  97.4073  17.4795 0011806 164.1369 196.0240 15.22330586  3139
2023-054S               
1 56194U 23054S   23121.89313375  .00012131  00000+0  52987-3 0  9998
2 56194  97.4101  17.4947 0010868 171.5738 188.5683 15.22206925  3136
2023-054T               
1 56195U 23054T   23121.89375907  .00006806  00000+0  30020-3 0  9994
2 56195  97.4087  17.4879 0011233 168.4384 191.7112 15.22046734  3136
VIGORIDE-6              
1 56196U 23054U   23122.28505890  .00008618  00000+0  37515-3 0  9994
2 56196  97.4091  17.8850 0011781 171.7354 188.4079 15.22410828  3197
2023-054V               
1 56197U 23054V   23121.95694078  .00007311  00000+0  31983-3 0  9997
2 56197  97.4084  17.5557 0012082 170.1210 190.0267 15.22291989  3148
UMBRA-06                
1 56198U 23054W   23122.49980493  .00031135  00000+0  16047-2 0  9991
2 56198  97.4059  18.0483 0015694 141.8740 218.3606 15.16204263  3222
2023-054X               
1 56199U 23054X   23122.28436811  .00010343  00000+0  44889-3 0  9993
2 56199  97.4101  17.8873 0012145 171.1043 189.0411 15.22453567  3195
HAWK-7C                 
1 56200U 23054Y   23122.28638603  .00005610  00000+0  24871-3 0  9999
2 56200  97.4079  17.8772 0011585 165.0357 195.1224 15.21947240  3192
2023-054Z               
1 56201U 23054Z   23122.28292472  .00010267  00000+0  44379-3 0  9999
2 56201  97.4086  17.8841 0012937 170.1758 189.9734 15.22585441  3191
2023-054AA              
1 56202U 23054AA  23121.69124818  .00008749  00000+0  37862-3 0  9993
2 56202  97.4101  17.3060 0012998 171.8354 188.3097 15.22591033  3105
2023-054AB              
1 56203U 23054AB  23122.28250049  .00010648  00000+0  45954-3 0  9998
2 56203  97.4065  17.8782 0013071 166.7266 193.4317 15.22624610  3198
GHGSAT-C6               
1 56204U 23054AC  23122.50078880  .00009633  00000+0  41433-3 0  9995
2 56204  97.4124  18.1149 0013877 164.3607 321.3900 15.22759500  3224
2023-054AD              
1 56205U 23054AD  23121.81568591  .00008314  00000+0  35306-3 0  9999
2 56205  97.4121  17.4494 0015688 164.9262 195.2446 15.23213824  3129
LEMUR-2-ROMEO-N-LEO     
1 56206U 23054AE  23121.94783830  .00027410  00000+0  11454-2 0  9994
2 56206  97.4034  17.5543 0014198 163.3626 196.8080 15.23494030  3144
2023-054AF              
1 56207U 23054AF  23121.94817452  .00016654  00000+0  70215-3 0  9992
2 56207  97.4160  17.5880 0015081 169.3929 190.7629 15.23284604  3149
2023-054AG              
1 56208U 23054AG  23121.88399713  .00009073  00000+0  38781-3 0  9990
2 56208  97.4025  17.4867 0013890 159.6172 200.5622 15.22990531  3136
GHGSAT-C7               
1 56209U 23054AH  23122.49892624  .00004604  00000+0  19935-3 0  9993
2 56209  97.4090  18.1082 0014016 159.2344 325.6687 15.22822948  3220
CONNECTA T2.1           
1 56210U 23054AJ  23122.49758394  .00006377  00000+0  27358-3 0  9997
2 56210  97.4039  18.0989 0014572 158.3068 326.9985 15.22980908  3226
INSPIRE-SAT 7           
1 56211U 23054AK  23121.94686470  .00014850  00000+0  62498-3 0  9991
2 56211  97.4142  17.5849 0015502 166.9716 193.1924 15.23366219  3142
ROSEYCUBESAT-1          
1 56212U 23054AL  23121.94551081  .00015440  00000+0  64680-3 0  9992
2 56212  97.4149  17.5882 0015965 166.5806 193.5858 15.23506943  3146
2023-054AM              
1 56213U 23054AM  23121.94552485  .00014935  00000+0  62624-3 0  9996
2 56213  97.4068  17.5678 0015392 160.8590 199.3228 15.23490183  3144
LS3C                    
1 56214U 23054AN  23121.87934065  .00012671  00000+0  53150-3 0  9996
2 56214  97.4095  17.5104 0015853 162.5497 197.6288 15.23509785  3131
VCUB1                   
1 56215U 23054AP  23122.50399366  .00015972  00000+0  68200-3 0  9996
2 56215  97.4095  18.1038 0012302 152.6444 332.4070 15.22898657  3140
2023-054AQ              
1 56216U 23054AQ  23117.81962120  .00014346  00000+0  64482-3 0  9991
2 56216  97.4083  13.4739 0007855 176.8690 183.2596 15.21213273  2410
2023-054AR              
1 56217U 23054AR  23120.71080233  .00010389  00000+0  45446-3 0  9993
2 56217  97.4129  16.3309 0011865 179.7888 180.0869 15.22187599  2953
2023-054AS              
1 56218U 23054AS  23117.62157168  .00011267  00000+0  50228-3 0  9992
2 56218  97.4065  13.2758 0009454 181.9614 178.1586 15.21539789  2483
FENGYUN 3G              
1 56232U 23055A   23122.54571966  .00033436  00000+0  53270-3 0  9994
2 56232  49.9995 112.7610 0005613 352.1710 106.0076 15.52877073  2565
STARLINK-30096          
1 56286U 23056A   23122.21720286  .01085979  00000+0  29822-2 0  9994
2 56286  43.0023 125.3541 0002403 116.6445 243.4676 15.90705344  3269
STARLINK-30107          
1 56287U 23056B   23122.33334491 -.01192752  00000+0 -20449-1 0  9992
2 56287  43.0018 126.3500 0001304 275.8565  62.3918 15.52974300  2488
STARLINK-30106          
1 56288U 23056C   23122.33334491 -.01190236  00000+0 -20388-1 0  9990
2 56288  43.0018 126.3480 0001367 268.2710  70.7804 15.52992366  2482
